[{"OBJECT_NAME":"STARLINK-6073","OBJECT_ID":"2023-078AS","EPOCH":"2026-03-09T22:17:41.084736","MEAN_MOTION":14.99848742,"ECCENTRICITY":0.00116938,"INCLINATION":70.0028,"RA_OF_ASC_NODE":323.68,"ARG_OF_PERICENTER":295.6335,"MEAN_ANOMALY":64.3616,"EPHEMERIS_TYPE":0,"CLASSIFICATION_TYPE":"U","NORAD_CAT_ID":56807,"ELEMENT_SET_NO":999,"REV_AT_EPOCH":15321,"BSTAR":0.083955931,"MEAN_MOTION_DOT":0.01119436,"MEAN_MOTION_DDOT":0},{"OBJECT_NAME":"OBJECT H","OBJECT_ID":"2026-023H","EPOCH":"2026-03-09T17:12:47.154816","MEAN_MOTION":15.23139098,"ECCENTRICITY":0.00239537,"INCLINATION":96.639,"RA_OF_ASC_NODE":144.1723,"ARG_OF_PERICENTER":117.6533,"MEAN_ANOMALY":242.7142,"EPHEMERIS_TYPE":0,"CLASSIFICATION_TYPE":"U","NORAD_CAT_ID":67681,"ELEMENT_SET_NO":999,"REV_AT_EPOCH":484,"BSTAR":0.00052586846,"MEAN_MOTION_DOT":0.00012465,"MEAN_MOTION_DDOT":0}]
